NORAD_CAT_ID,OBJECT_NAME,OBJECT_TYPE,EPOCH,MEAN_MOTION,ECCENTRICITY,INCLINATION,RA_OF_ASC_NODE,ARG_OF_PERICENTER,MEAN_ANOMALY,BSTAR,MEAN_MOTION_DOT,MEAN_MOTION_DDOT,TLE_LINE0,TLE_LINE1,TLE_LINE2,SEMIMAJOR_AXIS,PERIOD,APOGEE,PERIGEE,DECAYED
44767,STARLINK-1062,PAYLOAD,2020-06-10 16:00:00,15.0557707,0.0001456,53.0032,284.9849,95.4386,202.3006,0.00022205,2.957e-05,0.0,0 STARLINK-1062,1 44767U 19074BG  20162.66667824  .00002957  00000-0  22205-3 0  9992,2 44767  53.0032 284.9849 0001456  95.4386 202.3006 15.05577070 32160,6927.871999999999,95.644,550.746,548.7280000000002,0.0
44767,STARLINK-1062,PAYLOAD,2020-06-10 18:00:02,15.05561594,0.0001423,53.0034,284.6111,94.627,295.1040000000001,0.0028982,0.0004218,0.0,0 STARLINK-1062,1 44767U 19074BG  20162.75002315  .00042180  00000-0  28982-2 0  9999,2 44767  53.0034 284.6111 0001423  94.6270 295.1040 15.05561594 32171,6927.919,95.645,550.77,548.799,0.0
44767,STARLINK-1062,PAYLOAD,2020-06-10 22:00:00,15.05593891,0.0001385,53.0033,283.8624,94.9772,118.5312,-0.0012182,-0.0001799,0.0,0 STARLINK-1062,1 44767U 19074BG  20162.91667824 -.00017990 +00000-0 -12182-2 0  9997,2 44767 053.0033 283.8624 0001385 094.9772 118.5312 15.05593891001752,6927.82,95.643,550.645,548.726,0.0
44767,STARLINK-1062,PAYLOAD,2020-06-11 00:00:00,15.05602335,0.0001375,53.0034,283.4879,97.7663,207.6673,-0.002716,-0.00039654,0.0,0 STARLINK-1062,1 44767U 19074BG  20163.00001157 -.00039654  00000-0 -27160-2 0  9992,2 44767  53.0034 283.4879 0001375  97.7663 207.6673 15.05602335 32219,6927.794,95.643,550.612,548.707,0.0
44767,STARLINK-1062,PAYLOAD,2020-06-11 08:00:01,15.05581172,0.0001475,53.0035,281.9908,105.5428,207.5979,0.0013424,0.00019334,0.0,0 STARLINK-1062,1 44767U 19074BG  20163.33334491  .00019334  00000-0  13424-2 0  9997,2 44767  53.0035 281.9908 0001475 105.5428 207.5979 15.05581172 32262,6927.859,95.644,550.746,548.702,0.0
44767,STARLINK-1062,PAYLOAD,2020-06-11 12:00:04,15.05601818,0.0001447,53.0033,281.2435,100.9372,36.2428,-0.0022661,-0.00033162,0.0,0 STARLINK-1062,1 44767U 19074BG  20163.50004630 -.00033162  00000-0 -22661-2 0  9995,2 44767  53.0033 281.2435 0001447 100.9372  36.2428 15.05601818 32293,6927.795999999999,95.643,550.663,548.658,0.0
44767,STARLINK-1062,PAYLOAD,2020-06-11 14:00:01,15.05591881,0.0001421,53.0032,280.8701,97.5859,131.3382,-0.0010957,-0.00016212,0.0,0 STARLINK-1062,1 44767U 19074BG  20163.58334491 -.00016212 +00000-0 -10957-2 0  9996,2 44767 053.0032 280.8701 0001421 097.5859 131.3382 15.05591881001768,6927.826,95.643,550.6759999999998,548.707,0.0
44767,STARLINK-1062,PAYLOAD,2020-06-11 16:00:00,15.05580046,0.0001426999999999,53.0034,280.4963,95.4921,225.3622,0.00045877,6.411e-05,0.0,0 STARLINK-1062,1 44767U 19074BG  20163.66667824  .00006411  00000-0  45877-3 0  9992,2 44767  53.0034 280.4963 0001427  95.4921 225.3622 15.05580046 32316,6927.863,95.644,550.716,548.739,0.0
44767,STARLINK-1062,PAYLOAD,2020-06-11 16:10:24,15.05612717,0.0002117,53.0047,280.4608,145.0622,215.0505,0.0002129,2.826e-05,0.0,0 STARLINK-1062,1 44767U 19074BG  20163.67389040  .00002826  00000-0  21290-3 0  9993,2 44767  53.0047 280.4608 0002117 145.0622 215.0505 15.05612717 32310,6927.763000000001,95.642,551.094,548.161,0.0
44767,STARLINK-1062,PAYLOAD,2020-06-11 22:00:00,15.056012699999998,0.0001349,53.0032,279.3736,96.63,139.9968,-0.0016660999999999,-0.00024485,0.0,0 STARLINK-1062,1 44767U 19074BG  20163.91667824 -.00024485  00000-0 -16661-2 0  9991,2 44767  53.0032 279.3736 0001349  96.6300 139.9968 15.05601270 32356,6927.7980000000025,95.643,550.597,548.7280000000002,0.0
44767,STARLINK-1062,PAYLOAD,2020-06-12 06:00:00,15.05572814,0.0001405,53.0035,277.8759,106.2757,138.0682,0.0023439,0.0003403,0.0,0 STARLINK-1062,1 44767U 19074BG  20164.25001157  .00034030  00000-0  23439-2 0  9996,2 44767  53.0035 277.8759 0001405 106.2757 138.0682 15.05572814 32404,6927.885,95.645,550.7230000000002,548.7769999999998,0.0
44767,STARLINK-1062,PAYLOAD,2020-06-12 08:00:01,15.05588889,0.0001431999999999,53.0036,277.502,106.6186,229.7085,0.00091932,0.00013143,0.0,0 STARLINK-1062,1 44767U 19074BG  20164.33335648  .00013143  00000-0  91932-3 0  9996,2 44767  53.0036 277.5020 0001432 106.6186 229.7085 15.05588889 32418,6927.8359999999975,95.644,550.693,548.7090000000002,0.0
44767,STARLINK-1062,PAYLOAD,2020-06-12 14:00:01,15.05597774,0.0001363,53.0032,276.3813,98.9315,153.1222,-0.00074442,-0.00011114,0.0,0 STARLINK-1062,1 44767U 19074BG  20164.58334491 -.00011114  00000-0 -74442-3 0  9993,2 44767  53.0032 276.3813 0001363  98.9315 153.1222 15.05597774 32451,6927.808000000001,95.643,550.618,548.729,0.0
44767,STARLINK-1062,PAYLOAD,2020-06-12 16:00:01,15.05586633,0.000137,53.0034,276.0074,97.0136,247.0352,0.0011069,0.00015887,0.0,0 STARLINK-1062,1 44767U 19074BG  20164.66668981  .00015887  00000-0  11069-2 0  9990,2 44767  53.0034 276.0074 0001370  97.0136 247.0352 15.05586633 32468,6927.843000000003,95.644,550.6569999999998,548.758,0.0
44767,STARLINK-1062,PAYLOAD,2020-06-12 22:00:00,15.05617099,0.0001293,53.0031,274.8846,99.0053,160.7621,-0.001491,-0.00021958,0.0,0 STARLINK-1062,1 44767U 19074BG  20164.91667824 -.00021958 +00000-0 -14910-2 0  9999,2 44767 053.0031 274.8846 0001293 099.0053 160.7621 15.05617099001751,6927.749,95.642,550.51,548.7180000000002,0.0
44767,STARLINK-1062,PAYLOAD,2020-06-13 00:00:00,15.0560462,0.0001291,53.0033,274.5101,102.0378,249.6516,-0.0019433,-0.00028498,0.0,0 STARLINK-1062,1 44767U 19074BG  20165.00001157 -.00028498  00000-0 -19433-2 0  9992,2 44767  53.0033 274.5101 0001291 102.0378 249.6516 15.05604620 32511,6927.7869999999975,95.643,550.547,548.758,0.0
44767,STARLINK-1062,PAYLOAD,2020-06-13 04:00:00,15.05571201,0.0001288,53.0032,273.7614,107.2591,68.298,0.003077,0.00044827,0.0,0 STARLINK-1062,1 44767U 19074BG  20165.16667824  .00044827  00000-0  30770-2 0  9997,2 44767  53.0032 273.7614 0001288 107.2591  68.2980 15.05571201 32541,6927.89,95.645,550.6469999999998,548.863,0.0
44767,STARLINK-1062,PAYLOAD,2020-06-13 10:00:00,15.05610715,0.000134,53.0032,272.6397,106.5406,344.7863,-0.0020725,-0.00030371,0.0,0 STARLINK-1062,1 44767U 19074BG  20165.41667824 -.00030371  00000-0 -20725-2 0  9995,2 44767  53.0032 272.6397 0001340 106.5406 344.7863 15.05610715 32572,6927.769,95.642,550.562,548.705,0.0
44767,STARLINK-1062,PAYLOAD,2020-06-13 12:00:02,15.05604938,0.0001314,53.0031,272.2661,103.5067,79.8168,-0.0017152,-0.00025198,0.0,0 STARLINK-1062,1 44767U 19074BG  20165.50002315 -.00025198  00000-0 -17152-2 0  9994,2 44767  53.0031 272.2661 0001314 103.5067  79.8168 15.05604938 32598,6927.786,95.643,550.562,548.741,0.0
44767,STARLINK-1062,PAYLOAD,2020-06-13 14:00:01,15.05592995,0.0001307,53.003,271.8925,101.0167,174.1749,-0.00086283,-0.00012832,0.0,0 STARLINK-1062,1 44767U 19074BG  20165.58334491 -.00012832 +00000-0 -86283-3 0  9998,2 44767 053.0030 271.8925 0001307 101.0167 174.1749 15.05592995001769,6927.823,95.643,550.5930000000002,548.783,0.0
44767,STARLINK-1062,PAYLOAD,2020-06-13 16:00:01,15.05580005,0.00013,53.0031,271.5186,99.3986,267.7873,0.0011092,0.00015918,0.0,0 STARLINK-1062,1 44767U 19074BG  20165.66668981  .00015918  00000-0  11092-2 0  9992,2 44767  53.0031 271.5186 0001300  99.3986 267.7873 15.05580005 32611,6927.863,95.644,550.628,548.827,0.0
44767,STARLINK-1062,PAYLOAD,2020-06-13 22:00:00,15.05607633,0.0001222,53.0028,270.3957,102.1389,180.7577,-0.0024076,-0.0003521,0.0,0 STARLINK-1062,1 44767U 19074BG  20165.91667824 -.00035210  00000-0 -24076-2 0  9990,2 44767  53.0028 270.3957 0001222 102.1389 180.7577 15.05607633 32659,6927.778,95.642,550.49,548.797,0.0
44767,STARLINK-1062,PAYLOAD,2020-06-14 02:00:01,15.0557854,0.0001238,53.003,269.6468,109.3757,357.3886,0.0012185,0.00017518,0.0,0 STARLINK-1062,1 44767U 19074BG  20166.08334491  .00017518  00000-0  12185-2 0  9997,2 44767  53.0030 269.6468 0001238 109.3757 357.3886 15.05578540 32676,6927.8669999999975,95.644,550.59,548.875,0.0
44767,STARLINK-1062,PAYLOAD,2020-06-14 04:00:00,15.05570602,0.0001249,53.0028,269.2725,110.1497,88.5441,0.0027273,0.00039671,0.0,0 STARLINK-1062,1 44767U 19074BG  20166.16667824  .00039671  00000-0  27273-2 0  9993,2 44767  53.0028 269.2725 0001249 110.1497  88.5441 15.05570602 32691,6927.892,95.645,550.622,548.891,0.0
44767,STARLINK-1062,PAYLOAD,2020-06-14 06:00:00,15.0558047,0.0001309,53.0028,268.8982,111.8409,178.7752,0.0018313,0.00026503,0.0,0 STARLINK-1062,1 44767U 19074BG  20166.25001157 +.00026503 +00000-0 +18313-2 0  9999,2 44767 053.0028 268.8982 0001309 111.8409 178.7752 15.05580470001764,6927.861,95.644,550.633,548.82,0.0
44767,STARLINK-1062,PAYLOAD,2020-06-14 08:00:01,15.05599579,0.0001309,53.0029,268.5245,111.4112,271.1891,-0.00038797,-5.93e-05,0.0,0 STARLINK-1062,1 44767U 19074BG  20166.33335648 -.00005930  00000-0 -38797-3 0  9995,2 44767  53.0029 268.5245 0001309 111.4112 271.1891 15.05599579 32712,6927.803000000001,95.643,550.575,548.761,0.0
44767,STARLINK-1062,PAYLOAD,2020-06-14 12:00:00,15.05573372,0.0001377,53.0027,267.7773,104.0807,102.3164,-0.0018713,-0.00027434,0.0,0 STARLINK-1062,1 44767U 19074BG  20166.50001157 -.00027434  00000-0 -18713-2 0  9997,2 44767  53.0027 267.7773 0001377 104.0807 102.3164 15.05573372 32745,6927.8830000000025,95.645,550.702,548.794,0.0
44767,STARLINK-1062,PAYLOAD,2020-06-14 16:00:00,15.05548132,0.0001374,53.0028,267.0298,99.895,290.3483,0.0017311,0.00025011,0.0,0 STARLINK-1062,1 44767U 19074BG  20166.66667824  .00025011  00000-0  17311-2 0  9993,2 44767  53.0028 267.0298 0001374  99.8950 290.3483 15.05548132 32768,6927.9609999999975,95.646,550.778,548.874,0.0
44767,STARLINK-1062,PAYLOAD,2020-06-14 20:00:01,15.05568025,0.0001311,53.0025,266.2812,99.8307,114.244,-0.00052298,-7.888e-05,0.0,0 STARLINK-1062,1 44767U 19074BG  20166.83334491 -.00007888  00000-0 -52298-3 0  9991,2 44767  53.0025 266.2812 0001311  99.8307 114.2440 15.05568025 32798,6927.9,95.645,550.673,548.856,0.0
